STARLINK-2022           
1 47643U 21012Z   23342.44886380  .00001821  00000+0  14112-3 0  9998
2 47643  53.0531 142.8013 0001142 101.1385 258.9732 15.06398100155818
